H1 CPF  1  DGF 2022 06 23 11  6742 larets     NONE      
H2   304206 5557    27944 2022 06 21 00 00 00 2022 06 28 00 00 00    30 1 1  0 0 0
H5  0.0650
H9
10 0 59756  68400.000000  0      -1090303.622        125701.985      -6975089.401
10 0 59756  68430.000000  0      -1152130.243        343868.550      -6957882.753
10 0 59756  68460.000000  0      -1211839.984        561954.081      -6933604.083
10 0 59756  68490.000000  0      -1269373.461        779729.156      -6902278.059
10 0 59756  68520.000000  0      -1324674.472        996964.411      -6863936.438
10 0 59756  68550.000000  0      -1377690.060       1213430.770      -6818618.028
10 0 59756  68580.000000  0      -1428370.553       1428899.687      -6766368.661
10 0 59756  68610.000000  0      -1476669.619       1643143.376      -6707241.143
10 0 59756  68640.000000  0      -1522544.300       1855935.054      -6641295.214
10 0 59756  68670.000000  0      -1565955.056       2067049.178      -6568597.490
10 0 59756  68700.000000  0      -1606865.797       2276261.688      -6489221.409
10 0 59756  68730.000000  0      -1645243.915       2483350.241      -6403247.155
10 0 59756  68760.000000  0      -1681060.306       2688094.454      -6310761.584
10 0 59756  68790.000000  0      -1714289.396       2890276.132      -6211858.141
10 0 59756  68820.000000  0      -1744909.151       3089679.506      -6106636.769
10 0 59756  68850.000000  0      -1772901.091       3286091.457      -5995203.816
10 0 59756  68880.000000  0      -1798250.298       3479301.749      -5877671.939
10 0 59756  68910.000000  0      -1820945.418       3669103.257      -5754159.995
10 0 59756  68940.000000  0      -1840978.661       3855292.193      -5624792.929
10 0 59756  68970.000000  0      -1858345.799       4037668.327      -5489701.655
10 0 59756  69000.000000  0      -1873046.153       4216035.212      -5349022.927
10 0 59756  69030.000000  0      -1885082.581       4390200.395      -5202899.210
10 0 59756  69060.000000  0      -1894461.458       4559975.635      -5051478.538
10 0 59756  69090.000000  0      -1901192.654       4725177.111      -4894914.368
10 0 59756  69120.000000  0      -1905289.508       4885625.625      -4733365.433
10 0 59756  69150.000000  0      -1906768.793       5041146.803      -4566995.578
10 0 59756  69180.000000  0      -1905650.681       5191571.292      -4395973.607
10 0 59756  69210.000000  0      -1901958.704       5336734.946      -4220473.106
10 0 59756  69240.000000  0      -1895719.706       5476479.020      -4040672.279
10 0 59756  69270.000000  0      -1886963.796       5610650.340      -3856753.764
10 0 59756  69300.000000  0      -1875724.292       5739101.485      -3668904.452
10 0 59756  69330.000000  0      -1862037.667       5861690.954      -3477315.304
10 0 59756  69360.000000  0      -1845943.481       5978283.329      -3282181.155
10 0 59756  69390.000000  0      -1827484.324       6088749.435      -3083700.520
10 0 59756  69420.000000  0      -1806705.744       6192966.489      -2882075.390
10 0 59756  69450.000000  0      -1783656.175       6290818.250      -2677511.029
10 0 59756  69480.000000  0      -1758386.859       6382195.154      -2470215.759
10 0 59756  69510.000000  0      -1730951.767       6466994.445      -2260400.746
10 0 59756  69540.000000  0      -1701407.515       6545120.293      -2048279.782
10 0 59756  69570.000000  0      -1669813.274       6616483.910      -1834069.063
10 0 59756  69600.000000  0      -1636230.682       6681003.651      -1617986.971
10 0 59756  69630.000000  0      -1600723.751       6738605.116      -1400253.847
10 0 59756  69660.000000  0      -1563358.768       6789221.246      -1181091.766
10 0 59756  69690.000000  0      -1524204.202       6832792.403       -960724.307
10 0 59756  69720.000000  0      -1483330.595       6869266.449       -739376.312
10 0 59756  69750.000000  0      -1440810.458       6898598.808       -517273.660
10 0 59756  69780.000000  0      -1396718.166       6920752.529       -294643.026
10 0 59756  69810.000000  0      -1351129.845       6935698.335        -71711.643
10 0 59756  69840.000000  0      -1304123.258       6943414.665        151292.938
10 0 59756  69870.000000  0      -1255777.700       6943887.700        374143.092
10 0 59756  69900.000000  0      -1206173.871       6937111.385        596611.361
10 0 59756  69930.000000  0      -1155393.769       6923087.438        818470.694
10 0 59756  69960.000000  0      -1103520.564       6901825.349       1039494.685
10 0 59756  69990.000000  0      -1050638.483       6873342.370       1259457.813
10 0 59756  70020.000000  0       -996832.685       6837663.501       1478135.674
10 0 59756  70050.000000  0       -942189.138       6794821.458       1695305.220
10 0 59756  70080.000000  0       -886794.500       6744856.640       1910744.983
10 0 59756  70110.000000  0       -830735.992       6687817.085       2124235.308
10 0 59756  70140.000000  0       -774101.279       6623758.419       2335558.577
10 0 59756  70170.000000  0       -716978.344       6552743.800       2544499.437
10 0 59756  70200.000000  0       -659455.364       6474843.844       2750845.020
10 0 59756  70230.000000  0       -601620.590       6390136.552       2954385.165
10 0 59756  70260.000000  0       -543562.221       6298707.221       3154912.630
10 0 59756  70290.000000  0       -485368.283       6200648.349       3352223.305
10 0 59756  70320.000000  0       -427126.507       6096059.541       3546116.412
10 0 59756  70350.000000  0       -368924.216       5985047.406       3736394.716
10 0 59756  70380.000000  0       -310848.200       5867725.444       3922864.731
10 0 59756  70410.000000  0       -252984.600       5744213.919       4105336.926
10 0 59756  70440.000000  0       -195418.788       5614639.720       4283625.919
10 0 59756  70470.000000  0       -138235.252       5479136.218       4457550.665
10 0 59756  70500.000000  0        -81517.479       5337843.108       4626934.634
10 0 59756  70530.000000  0        -25347.843       5190906.254       4791605.979
10 0 59756  70560.000000  0         30192.504       5038477.530       4951397.697
10 0 59756  70590.000000  0         85023.743       4880714.662       5106147.789
10 0 59756  70620.000000  0        139067.486       4717781.064       5255699.422
10 0 59756  70650.000000  0        192246.885       4549845.664       5399901.079
10 0 59756  70680.000000  0        244486.731       4377082.727       5538606.720
10 0 59756  70710.000000  0        295713.552       4199671.665       5671675.921
10 0 59756  70740.000000  0        345855.708       4017796.842       5798974.015
10 0 59756  70770.000000  0        394843.486       3831647.375       5920372.220
10 0 59756  70800.000000  0        442609.188       3641416.931       6035747.760
10 0 59756  70830.000000  0        489087.212       3447303.522       6144983.982
10 0 59756  70860.000000  0        534214.143       3249509.299       6247970.465
10 0 59756  70890.000000  0        577928.826       3048240.335       6344603.126
10 0 59756  70920.000000  0        620172.449       2843706.413       6434784.319
10 0 59756  70950.000000  0        660888.612       2636120.804       6518422.929
10 0 59756  70980.000000  0        700023.401       2425700.044       6595434.457
10 0 59756  71010.000000  0        737525.449       2212663.706       6665741.104
10 0 59756  71040.000000  0        773346.007       1997234.167       6729271.838
10 0 59756  71070.000000  0        807438.997       1779636.382       6785962.464
10 0 59756  71100.000000  0        839761.069       1560097.642       6835755.682
10 0 59756  71130.000000  0        870271.656       1338847.344       6878601.136
10 0 59756  71160.000000  0        898933.017       1116116.754       6914455.465
10 0 59756  71190.000000  0        925710.288        892138.767       6943282.339
10 0 59756  71220.000000  0        950571.517        667147.672       6965052.498
10 0 59756  71250.000000  0        973487.706        441378.905       6979743.779
10 0 59756  71280.000000  0        994432.842        215068.813       6987341.141
10 0 59756  71310.000000  0       1013383.923        -11545.596       6987836.683
10 0 59756  71340.000000  0       1030320.986       -238226.902       6981229.654
10 0 59756  71370.000000  0       1045227.129       -464737.518       6967526.450
10 0 59756  71400.000000  0       1058088.524       -690839.938       6946740.613
10 0 59756  71430.000000  0       1068894.437       -916296.981       6918892.810
10 0 59756  71460.000000  0       1077637.228      -1140872.038       6884010.826
10 0 59756  71490.000000  0       1084312.365      -1364329.314       6842129.535
10 0 59756  71520.000000  0       1088918.418      -1586434.083       6793290.872
10 0 59756  71550.000000  0       1091457.056      -1806952.923       6737543.794
10 0 59756  71580.000000  0       1091933.045      -2025653.971       6674944.238
10 0 59756  71610.000000  0       1090354.235      -2242307.159       6605555.065
10 0 59756  71640.000000  0       1086731.544      -2456684.462       6529446.013
10 0 59756  71670.000000  0       1081078.937      -2668560.140       6446693.619
10 0 59756  71700.000000  0       1073413.404      -2877710.977       6357381.154
10 0 59756  71730.000000  0       1063754.925      -3083916.512       6261598.538
10 0 59756  71760.000000  0       1052126.444      -3286959.276       6159442.258
10 0 59756  71790.000000  0       1038553.836      -3486625.013       6051015.276
10 0 59756  71820.000000  0       1023065.865      -3682702.918       5936426.938
10 0 59756  71850.000000  0       1005694.145      -3874985.856       5815792.862
10 0 59756  71880.000000  0        986473.091      -4063270.585       5689234.840
10 0 59756  71910.000000  0        965439.870      -4247357.974       5556880.713
10 0 59756  71940.000000  0        942634.348      -4427053.219       5418864.257
10 0 59756  71970.000000  0        918099.031      -4602166.053       5275325.057
99
